CTC1_L_00196016-03
1 10062U 23645Z   26075.70031250  .00000000  00000+0  00000-0 0  9996
2 10062  55.0000 180.0000 0000000   0.0000   0.0000 13.56072486    13
CTC1_L_00196016-04
1 10063U 26358OJ  26075.70031250  .00000000  00000+0  00000-0 0  9991
2 10063  55.0000 180.0000 0000000   0.0000  90.0000 13.56072486    13
CTC1_L_00196017-01
1 10064U 25478AR  26075.70031250  .00000000  00000+0  00000-0 0  9994
2 10064  55.0000 192.0000 0000000   0.0000 192.0000 13.56072486    10
CTC1_L_00196017-02
1 10065U 26456YZ  26075.70031250  .00000000  00000+0  00000-0 0  9992
2 10065  55.0000 192.0000 0000000   0.0000 282.0000 13.56072486    11
CTC1_L_00196017-03
1 10066U 26397GZ  26075.70031250  .00000000  00000+0  00000-0 0  9997
2 10066  55.0000 192.0000 0000000   0.0000  12.0000 13.56072486    13
CTC1_L_00196017-04
1 10067U 23244QG  26075.70031250  .00000000  00000+0  00000-0 0  9996
2 10067  55.0000 192.0000 0000000   0.0000 102.0000 13.56072486    14
CTC1_L_00196018-01
1 10068U 24894GW  26075.70031250  .00000000  00000+0  00000-0 0  9999
2 10068  55.0000 204.0000 0000000   0.0000 204.0000 13.56072486    12
CTC1_L_00196018-02
1 10069U 23414DF  26075.70031250  .00000000  00000+0  00000-0 0  9997
2 10069  55.0000 204.0000 0000000   0.0000 294.0000 13.56072486    12
CTC1_L_00196018-03
1 10070U 25184PN  26075.70031250  .00000000  00000+0  00000-0 0  9995
2 10070  55.0000 204.0000 0000000   0.0000  24.0000 13.56072486    15
CTC1_L_00196018-04
1 10071U 24847V   26075.70031250  .00000000  00000+0  00000-0 0  9991
2 10071  55.0000 204.0000 0000000   0.0000 114.0000 13.56072486    16
CTC1_L_00196019-01
1 10072U 25755WF  26075.70031250  .00000000  00000+0  00000-0 0  9991
2 10072  55.0000 216.0000 0000000   0.0000 216.0000 13.56072486    13
CTC1_L_00196019-02
1 10073U 25998RK  26075.70031250  .00000000  00000+0  00000-0 0  9991
2 10073  55.0000 216.0000 0000000   0.0000 306.0000 13.56072486    14
CTC1_L_00196019-03
1 10074U 23918PL  26075.70031250  .00000000  00000+0  00000-0 0  9992
2 10074  55.0000 216.0000 0000000   0.0000  36.0000 13.56072486    15
CTC1_L_00196019-04
1 10075U 26570VY  26075.70031250  .00000000  00000+0  00000-0 0  9990
2 10075  55.0000 216.0000 0000000   0.0000 126.0000 13.56072486    16
CTC1_L_00196020-01
1 10076U 26568SB  26075.70031250  .00000000  00000+0  00000-0 0  9998
2 10076  55.0000 228.0000 0000000   0.0000 228.0000 13.56072486    13
CTC1_L_00196020-02
1 10077U 24995LT  26075.70031250  .00000000  00000+0  00000-0 0  9991
2 10077  55.0000 228.0000 0000000   0.0000 318.0000 13.56072486    14
CTC1_L_00196020-03
1 10078U 26665ER  26075.70031250  .00000000  00000+0  00000-0 0  9998
2 10078  55.0000 228.0000 0000000   0.0000  48.0000 13.56072486    15
CTC1_L_00196020-04
1 10079U 26451OH  26075.70031250  .00000000  00000+0  00000-0 0  9992
2 10079  55.0000 228.0000 0000000   0.0000 138.0000 13.56072486    16
CTC1_L_00196021-01
1 10080U 23460RK  26075.70031250  .00000000  00000+0  00000-0 0  9991
2 10080  55.0000 240.0000 0000000   0.0000 240.0000 13.56072486    16
CTC1_L_00196021-02
1 10081U 22798DI  26075.70031250  .00000000  00000+0  00000-0 0  9995
2 10081  55.0000 240.0000 0000000   0.0000 330.0000 13.56072486    17
CTC1_L_00196021-03
1 10082U 26893UV  26075.70031250  .00000000  00000+0  00000-0 0  9996
2 10082  55.0000 240.0000 0000000   0.0000  60.0000 13.56072486    18
CTC1_L_00196021-04
1 10083U 24820OO  26075.70031250  .00000000  00000+0  00000-0 0  9995
2 10083  55.0000 240.0000 0000000   0.0000 150.0000 13.56072486    19
CTC1_L_00196022-01
1 10084U 25695KP  26075.70031250  .00000000  00000+0  00000-0 0  9997
2 10084  55.0000 252.0000 0000000   0.0000 252.0000 13.56072486    16
CTC1_L_00196022-02
1 10085U 23789TO  26075.70031250  .00000000  00000+0  00000-0 0  9990
2 10085  55.0000 252.0000 0000000   0.0000 342.0000 13.56072486    17
CTC1_L_00196022-03
1 10086U 26614CB  26075.70031250  .00000000  00000+0  00000-0 0  9991
2 10086  55.0000 252.0000 0000000   0.0000  72.0000 13.56072486    18
CTC1_L_00196022-04
1 10087U 23019UD  26075.70031250  .00000000  00000+0  00000-0 0  9998
2 10087  55.0000 252.0000 0000000   0.0000 162.0000 13.56072486    19
CTC1_L_00196023-01
1 10088U 25818L   26075.70031250  .00000000  00000+0  00000-0 0  9998
2 10088  55.0000 264.0000 0000000   0.0000 264.0000 13.56072486    16
CTC1_L_00196023-02
1 10089U 22580BT  26075.70031250  .00000000  00000+0  00000-0 0  9992
2 10089  55.0000 264.0000 0000000   0.0000 354.0000 13.56072486    17
CTC1_L_00196023-03
1 10090U 25617VP  26075.70031250  .00000000  00000+0  00000-0 0  9998
2 10090  55.0000 264.0000 0000000   0.0000  84.0000 13.56072486    19
CTC1_L_00196023-04
1 10091U 24111FE  26075.70031250  .00000000  00000+0  00000-0 0  9997
2 10091  55.0000 264.0000 0000000   0.0000 174.0000 13.56072486    10
CTC1_L_00196024-01
1 10092U 22706HE  26075.70031250  .00000000  00000+0  00000-0 0  9996
2 10092  55.0000 276.0000 0000000   0.0000 276.0000 13.56072486    17
CTC1_L_00196024-02
1 10093U 22251YS  26075.70031250  .00000000  00000+0  00000-0 0  9992
2 10093  55.0000 276.0000 0000000   0.0000   6.0000 13.56072486    19
CTC1_L_00196024-03
1 10094U 25426XP  26075.70031250  .00000000  00000+0  00000-0 0  9990
2 10094  55.0000 276.0000 0000000   0.0000  96.0000 13.56072486    19
CTC1_L_00196024-04
1 10095U 22164QS  26075.70031250  .00000000  00000+0  00000-0 0  9997
2 10095  55.0000 276.0000 0000000   0.0000 186.0000 13.56072486    10
CTC1_L_00196025-01
1 10096U 23002KR  26075.70031250  .00000000  00000+0  00000-0 0  9990
2 10096  55.0000 288.0000 0000000   0.0000 288.0000 13.56072486    17
CTC1_L_00196025-02
1 10097U 26613SC  26075.70031250  .00000000  00000+0  00000-0 0  9992
2 10097  55.0000 288.0000 0000000   0.0000  18.0000 13.56072486    19
CTC1_L_00196025-03
1 10098U 23123TA  26075.70031250  .00000000  00000+0  00000-0 0  9996
2 10098  55.0000 288.0000 0000000   0.0000 108.0000 13.56072486    10
CTC1_L_00196025-04
1 10099U 24191QD  26075.70031250  .00000000  00000+0  00000-0 0  9993
2 10099  55.0000 288.0000 0000000   0.0000 198.0000 13.56072486    10
CTC1_L_00196026-01
1 10100U 24040MY  26075.70031250  .00000000  00000+0  00000-0 0  9999
2 10100  55.0000 300.0000 0000000   0.0000 300.0000 13.56072486    13
CTC1_L_00196026-02
1 10101U 23783IP  26075.70031250  .00000000  00000+0  00000-0 0  9993
2 10101  55.0000 300.0000 0000000   0.0000  30.0000 13.56072486    14
CTC1_L_00196026-03
1 10102U 26397EC  26075.70031250  .00000000  00000+0  00000-0 0  9998
2 10102  55.0000 300.0000 0000000   0.0000 120.0000 13.56072486    15
CTC1_L_00196026-04
1 10103U 22976CM  26075.70031250  .00000000  00000+0  00000-0 0  9998
2 10103  55.0000 300.0000 0000000   0.0000 210.0000 13.56072486    16
CTC1_L_00196027-01
1 10104U 24900RP  26075.70031250  .00000000  00000+0  00000-0 0  9998
2 10104  55.0000 312.0000 0000000   0.0000 312.0000 13.56072486    13
CTC1_L_00196027-02
1 10105U 25182FF  26075.70031250  .00000000  00000+0  00000-0 0  9992
2 10105  55.0000 312.0000 0000000   0.0000  42.0000 13.56072486    14
CTC1_L_00196027-03
1 10106U 25681BF  26075.70031250  .00000000  00000+0  00000-0 0  9997
2 10106  55.0000 312.0000 0000000   0.0000 132.0000 13.56072486    15
CTC1_L_00196027-04
1 10107U 25882ZS  26075.70031250  .00000000  00000+0  00000-0 0  9991
2 10107  55.0000 312.0000 0000000   0.0000 222.0000 13.56072486    16
CTC1_L_00196028-01
1 10108U 25558QF  26075.70031250  .00000000  00000+0  00000-0 0  9992
2 10108  55.0000 324.0000 0000000   0.0000 324.0000 13.56072486    13
CTC1_L_00196028-02
1 10109U 22617PX  26075.70031250  .00000000  00000+0  00000-0 0  9996
2 10109  55.0000 324.0000 0000000   0.0000  54.0000 13.56072486    14
CTC1_L_00196028-03
1 10110U 23397VW  26075.70031250  .00000000  00000+0  00000-0 0  9994
2 10110  55.0000 324.0000 0000000   0.0000 144.0000 13.56072486    16
CTC1_L_00196028-04
1 10111U 25615DZ  26075.70031250  .00000000  00000+0  00000-0 0  9990
2 10111  55.0000 324.0000 0000000   0.0000 234.0000 13.56072486    17
CTC1_L_00196029-01
1 10112U 22640DO  26075.70031250  .00000000  00000+0  00000-0 0  9996
2 10112  55.0000 336.0000 0000000   0.0000 336.0000 13.56072486    14
CTC1_L_00196029-02
1 10113U 24536PO  26075.70031250  .00000000  00000+0  00000-0 0  9993
2 10113  55.0000 336.0000 0000000   0.0000  66.0000 13.56072486    15
CTC1_L_00196029-03
1 10114U 26122QO  26075.70031250  .00000000  00000+0  00000-0 0  9997
2 10114  55.0000 336.0000 0000000   0.0000 156.0000 13.56072486    16
CTC1_L_00196029-04
1 10115U 23954WH  26075.70031250  .00000000  00000+0  00000-0 0  9998
2 10115  55.0000 336.0000 0000000   0.0000 246.0000 13.56072486    17
CTC1_L_00196030-01
1 10116U 23842OF  26075.70031250  .00000000  00000+0  00000-0 0  9995
2 10116  55.0000 348.0000 0000000   0.0000 348.0000 13.56072486    14
CTC1_L_00196030-02
1 10117U 26624JR  26075.70031250  .00000000  00000+0  00000-0 0  9997
2 10117  55.0000 348.0000 0000000   0.0000  78.0000 13.56072486    15
CTC1_L_00196030-03
1 10118U 25343UP  26075.70031250  .00000000  00000+0  00000-0 0  9995
2 10118  55.0000 348.0000 0000000   0.0000 168.0000 13.56072486    16
CTC1_L_00196030-04
1 10119U 24453UY  26075.70031250  .00000000  00000+0  00000-0 0  9997
2 10119  55.0000 348.0000 0000000   0.0000 258.0000 13.56072486    17
